ONEWEB-0326             
1 49195U 21083K   26024.89924498  .00000056  00000+0  10995-3 0  9996
2 49195  87.9199   3.9001 0002082  80.6052 279.5315 13.18685914211113
ONEWEB-0327             
1 49196U 21083L   26024.89897037  .00000055  00000+0  10788-3 0  9994
2 49196  87.9191   3.9159 0002088  77.2525 282.8841 13.18686039211135
ONEWEB-0328             
1 49197U 21083M   26025.31225860 -.00000241  00000+0 -69551-3 0  9993
2 49197  87.9026 348.5958 0001814  86.4331 273.7005 13.13470310212142
ONEWEB-0331             
1 49198U 21083N   26024.89250298  .00000057  00000+0  11258-3 0  9993
2 49198  87.9201   3.8945 0002152  86.3699 273.7679 13.18686002211123
ONEWEB-0333             
1 49199U 21083P   26025.30717742 -.00000203  00000+0 -59158-3 0  9999
2 49199  87.9001 348.6436 0001799  80.0610 280.0723 13.13471324212156
ONEWEB-0334             
1 49200U 21083Q   26025.26522907  .00000098  00000+0  20866-3 0  9998
2 49200  87.9224 302.9748 0000880  49.8532 310.2679 13.20772669217921
ONEWEB-0335             
1 49201U 21083R   26024.38795829 -.00000211  00000+0 -61397-3 0  9999
2 49201  87.9011 348.8165 0001996  82.4339 277.7017 13.13469438212045
ONEWEB-0336             
1 49202U 21083S   26025.27333264  .00000310  00000+0  81332-3 0  9999
2 49202  87.9008 348.6377 0002165  84.5894 275.5482 13.13470126212153
ONEWEB-0337             
1 49203U 21083T   26025.28332822 -.00000055  00000+0 -18479-3 0  9990
2 49203  87.9009 348.6473 0001899  87.4344 272.7003 13.13469461212155
ONEWEB-0338             
1 49204U 21083U   26025.31571803  .00000080  00000+0  16363-3 0  9995
2 49204  87.9221 302.9686 0001406  74.1845 285.9443 13.20774523217957
ONEWEB-0339             
1 49205U 21083V   26025.29194441  .00000835  00000+0  22529-2 0  9990
2 49205  87.9012 348.6294 0001644  86.5063 273.6254 13.13462475212132
ONEWEB-0340             
1 49206U 21083W   26024.87929733  .00000095  00000+0  20935-3 0  9992
2 49206  87.9200   3.9017 0001898  84.1407 275.9941 13.18686817211087
ONEWEB-0341             
1 49207U 21083X   26024.43064814  .00000061  00000+0  12193-3 0  9995
2 49207  87.9200   4.0017 0001945 100.5790 259.5561 13.18686626211041
ONEWEB-0342             
1 49208U 21083Y   26024.71599561  .00000115  00000+0  25174-3 0  9992
2 49208  87.9231 303.0623 0001567  75.2833 284.8474 13.20772491217844
ONEWEB-0343             
1 49209U 21083Z   26024.89414435  .00000065  00000+0  13165-3 0  9999
2 49209  87.9200   3.9037 0001596 101.3037 258.8274 13.18687417211152
ONEWEB-0344             
1 49210U 21083AA  26025.28686934  .00000021  00000+0  22116-4 0  9999
2 49210  87.9006 348.6583 0001912  94.4404 265.6944 13.13470060212133
ONEWEB-0345             
1 49211U 21083AB  26025.27839085  .00000141  00000+0  35091-3 0  9994
2 49211  87.9012 348.6235 0001842  93.8975 266.2365 13.13469562212143
