[{"OBJECT_NAME":"ONEWEB-0326","OBJECT_ID":"2021-083K","EPOCH":"2026-01-24T21:34:54.766272","MEAN_MOTION":13.18685914,"ECCENTRICITY":0.0002082,"INCLINATION":87.9199,"RA_OF_ASC_NODE":3.9001,"ARG_OF_PERICENTER":80.6052,"MEAN_ANOMALY":279.5315,"EPHEMERIS_TYPE":0,"CLASSIFICATION_TYPE":"U","NORAD_CAT_ID":49195,"ELEMENT_SET_NO":999,"REV_AT_EPOCH":21111,"BSTAR":0.00010995,"MEAN_MOTION_DOT":5.6e-7,"MEAN_MOTION_DDOT":0},{"OBJECT_NAME":"ONEWEB-0327","OBJECT_ID":"2021-083L","EPOCH":"2026-01-24T21:34:31.039968","MEAN_MOTION":13.18686039,"ECCENTRICITY":0.0002088,"INCLINATION":87.9191,"RA_OF_ASC_NODE":3.9159,"ARG_OF_PERICENTER":77.2525,"MEAN_ANOMALY":282.8841,"EPHEMERIS_TYPE":0,"CLASSIFICATION_TYPE":"U","NORAD_CAT_ID":49196,"ELEMENT_SET_NO":999,"REV_AT_EPOCH":21113,"BSTAR":0.00010788,"MEAN_MOTION_DOT":5.5e-7,"MEAN_MOTION_DDOT":0},{"OBJECT_NAME":"ONEWEB-0328","OBJECT_ID":"2021-083M","EPOCH":"2026-01-25T07:29:39.143040","MEAN_MOTION":13.1347031,"ECCENTRICITY":0.00018147,"INCLINATION":87.9026,"RA_OF_ASC_NODE":348.5958,"ARG_OF_PERICENTER":86.4331,"MEAN_ANOMALY":273.7005,"EPHEMERIS_TYPE":0,"CLASSIFICATION_TYPE":"U","NORAD_CAT_ID":49197,"ELEMENT_SET_NO":999,"REV_AT_EPOCH":21214,"BSTAR":-0.00069551173,"MEAN_MOTION_DOT":-2.41e-6,"MEAN_MOTION_DDOT":0},{"OBJECT_NAME":"ONEWEB-0331","OBJECT_ID":"2021-083N","EPOCH":"2026-01-24T21:25:12.257472","MEAN_MOTION":13.18686002,"ECCENTRICITY":0.0002152,"INCLINATION":87.9201,"RA_OF_ASC_NODE":3.8945,"ARG_OF_PERICENTER":86.3699,"MEAN_ANOMALY":273.7679,"EPHEMERIS_TYPE":0,"CLASSIFICATION_TYPE":"U","NORAD_CAT_ID":49198,"ELEMENT_SET_NO":999,"REV_AT_EPOCH":21112,"BSTAR":0.00011258,"MEAN_MOTION_DOT":5.7e-7,"MEAN_MOTION_DDOT":0},{"OBJECT_NAME":"ONEWEB-0333","OBJECT_ID":"2021-083P","EPOCH":"2026-01-25T07:22:20.129088","MEAN_MOTION":13.13471324,"ECCENTRICITY":0.00017997,"INCLINATION":87.9001,"RA_OF_ASC_NODE":348.6436,"ARG_OF_PERICENTER":80.061,"MEAN_ANOMALY":280.0723,"EPHEMERIS_TYPE":0,"CLASSIFICATION_TYPE":"U","NORAD_CAT_ID":49199,"ELEMENT_SET_NO":999,"REV_AT_EPOCH":21215,"BSTAR":-0.000591582,"MEAN_MOTION_DOT":-2.03e-6,"MEAN_MOTION_DDOT":0},{"OBJECT_NAME":"ONEWEB-0334","OBJECT_ID":"2021-083Q","EPOCH":"2026-01-25T06:21:55.791648","MEAN_MOTION":13.20772669,"ECCENTRICITY":8.802e-5,"INCLINATION":87.9224,"RA_OF_ASC_NODE":302.9748,"ARG_OF_PERICENTER":49.8532,"MEAN_ANOMALY":310.2679,"EPHEMERIS_TYPE":0,"CLASSIFICATION_TYPE":"U","NORAD_CAT_ID":49200,"ELEMENT_SET_NO":999,"REV_AT_EPOCH":21792,"BSTAR":0.00020865647,"MEAN_MOTION_DOT":9.8e-7,"MEAN_MOTION_DDOT":0},{"OBJECT_NAME":"ONEWEB-0335","OBJECT_ID":"2021-083R","EPOCH":"2026-01-24T09:18:39.596256","MEAN_MOTION":13.13469438,"ECCENTRICITY":0.0001996,"INCLINATION":87.9011,"RA_OF_ASC_NODE":348.8165,"ARG_OF_PERICENTER":82.4339,"MEAN_ANOMALY":277.7017,"EPHEMERIS_TYPE":0,"CLASSIFICATION_TYPE":"U","NORAD_CAT_ID":49201,"ELEMENT_SET_NO":999,"REV_AT_EPOCH":21204,"BSTAR":-0.00061396644,"MEAN_MOTION_DOT":-2.11e-6,"MEAN_MOTION_DDOT":0},{"OBJECT_NAME":"ONEWEB-0336","OBJECT_ID":"2021-083S","EPOCH":"2026-01-25T06:33:35.940096","MEAN_MOTION":13.13470126,"ECCENTRICITY":0.0002165,"INCLINATION":87.9008,"RA_OF_ASC_NODE":348.6377,"ARG_OF_PERICENTER":84.5894,"MEAN_ANOMALY":275.5482,"EPHEMERIS_TYPE":0,"CLASSIFICATION_TYPE":"U","NORAD_CAT_ID":49202,"ELEMENT_SET_NO":999,"REV_AT_EPOCH":21215,"BSTAR":0.00081331806,"MEAN_MOTION_DOT":3.1e-6,"MEAN_MOTION_DDOT":0},{"OBJECT_NAME":"ONEWEB-0337","OBJECT_ID":"2021-083T","EPOCH":"2026-01-25T06:47:59.558208","MEAN_MOTION":13.13469461,"ECCENTRICITY":0.00018997,"INCLINATION":87.9009,"RA_OF_ASC_NODE":348.6473,"ARG_OF_PERICENTER":87.4344,"MEAN_ANOMALY":272.7003,"EPHEMERIS_TYPE":0,"CLASSIFICATION_TYPE":"U","NORAD_CAT_ID":49203,"ELEMENT_SET_NO":999,"REV_AT_EPOCH":21215,"BSTAR":-0.00018478875,"MEAN_MOTION_DOT":-5.5e-7,"MEAN_MOTION_DDOT":0},{"OBJECT_NAME":"ONEWEB-0338","OBJECT_ID":"2021-083U","EPOCH":"2026-01-25T07:34:38.037792","MEAN_MOTION":13.20774523,"ECCENTRICITY":0.00014064,"INCLINATION":87.9221,"RA_OF_ASC_NODE":302.9686,"ARG_OF_PERICENTER":74.1845,"MEAN_ANOMALY":285.9443,"EPHEMERIS_TYPE":0,"CLASSIFICATION_TYPE":"U","NORAD_CAT_ID":49204,"ELEMENT_SET_NO":999,"REV_AT_EPOCH":21795,"BSTAR":0.00016363431,"MEAN_MOTION_DOT":8.0e-7,"MEAN_MOTION_DDOT":0},{"OBJECT_NAME":"ONEWEB-0339","OBJECT_ID":"2021-083V","EPOCH":"2026-01-25T07:00:23.997024","MEAN_MOTION":13.13462475,"ECCENTRICITY":0.00016445,"INCLINATION":87.9012,"RA_OF_ASC_NODE":348.6294,"ARG_OF_PERICENTER":86.5063,"MEAN_ANOMALY":273.6254,"EPHEMERIS_TYPE":0,"CLASSIFICATION_TYPE":"U","NORAD_CAT_ID":49205,"ELEMENT_SET_NO":999,"REV_AT_EPOCH":21213,"BSTAR":0.0022528983,"MEAN_MOTION_DOT":8.35e-6,"MEAN_MOTION_DDOT":0},{"OBJECT_NAME":"ONEWEB-0340","OBJECT_ID":"2021-083W","EPOCH":"2026-01-24T21:06:11.289312","MEAN_MOTION":13.18686817,"ECCENTRICITY":0.0001898,"INCLINATION":87.92,"RA_OF_ASC_NODE":3.9017,"ARG_OF_PERICENTER":84.1407,"MEAN_ANOMALY":275.9941,"EPHEMERIS_TYPE":0,"CLASSIFICATION_TYPE":"U","NORAD_CAT_ID":49206,"ELEMENT_SET_NO":999,"REV_AT_EPOCH":21108,"BSTAR":0.00020934573,"MEAN_MOTION_DOT":9.5e-7,"MEAN_MOTION_DDOT":0},{"OBJECT_NAME":"ONEWEB-0341","OBJECT_ID":"2021-083X","EPOCH":"2026-01-24T10:20:07.999296","MEAN_MOTION":13.18686626,"ECCENTRICITY":0.00019456,"INCLINATION":87.92,"RA_OF_ASC_NODE":4.0017,"ARG_OF_PERICENTER":100.579,"MEAN_ANOMALY":259.5561,"EPHEMERIS_TYPE":0,"CLASSIFICATION_TYPE":"U","NORAD_CAT_ID":49207,"ELEMENT_SET_NO":999,"REV_AT_EPOCH":21104,"BSTAR":0.00012192602,"MEAN_MOTION_DOT":6.1e-7,"MEAN_MOTION_DDOT":0},{"OBJECT_NAME":"ONEWEB-0342","OBJECT_ID":"2021-083Y","EPOCH":"2026-01-24T17:11:02.020704","MEAN_MOTION":13.20772491,"ECCENTRICITY":0.00015674,"INCLINATION":87.9231,"RA_OF_ASC_NODE":303.0623,"ARG_OF_PERICENTER":75.2833,"MEAN_ANOMALY":284.8474,"EPHEMERIS_TYPE":0,"CLASSIFICATION_TYPE":"U","NORAD_CAT_ID":49208,"ELEMENT_SET_NO":999,"REV_AT_EPOCH":21784,"BSTAR":0.00025173763,"MEAN_MOTION_DOT":1.15e-6,"MEAN_MOTION_DDOT":0},{"OBJECT_NAME":"ONEWEB-0343","OBJECT_ID":"2021-083Z","EPOCH":"2026-01-24T21:27:34.071840","MEAN_MOTION":13.18687417,"ECCENTRICITY":0.0001596,"INCLINATION":87.92,"RA_OF_ASC_NODE":3.9037,"ARG_OF_PERICENTER":101.3037,"MEAN_ANOMALY":258.8274,"EPHEMERIS_TYPE":0,"CLASSIFICATION_TYPE":"U","NORAD_CAT_ID":49209,"ELEMENT_SET_NO":999,"REV_AT_EPOCH":21115,"BSTAR":0.00013165,"MEAN_MOTION_DOT":6.5e-7,"MEAN_MOTION_DDOT":0},{"OBJECT_NAME":"ONEWEB-0344","OBJECT_ID":"2021-083AA","EPOCH":"2026-01-25T06:53:05.510976","MEAN_MOTION":13.1347006,"ECCENTRICITY":0.0001912,"INCLINATION":87.9006,"RA_OF_ASC_NODE":348.6583,"ARG_OF_PERICENTER":94.4404,"MEAN_ANOMALY":265.6944,"EPHEMERIS_TYPE":0,"CLASSIFICATION_TYPE":"U","NORAD_CAT_ID":49210,"ELEMENT_SET_NO":999,"REV_AT_EPOCH":21213,"BSTAR":2.2116285e-5,"MEAN_MOTION_DOT":2.1e-7,"MEAN_MOTION_DDOT":0},{"OBJECT_NAME":"ONEWEB-0345","OBJECT_ID":"2021-083AB","EPOCH":"2026-01-25T06:40:52.969440","MEAN_MOTION":13.13469562,"ECCENTRICITY":0.00018425,"INCLINATION":87.9012,"RA_OF_ASC_NODE":348.6235,"ARG_OF_PERICENTER":93.8975,"MEAN_ANOMALY":266.2365,"EPHEMERIS_TYPE":0,"CLASSIFICATION_TYPE":"U","NORAD_CAT_ID":49211,"ELEMENT_SET_NO":999,"REV_AT_EPOCH":21214,"BSTAR":0.00035091281,"MEAN_MOTION_DOT":1.41e-6,"MEAN_MOTION_DDOT":0}]
